ALOS-2                  
1 39766U 14029A   26165.56911435  .00002060  00000+0  28258-3 0  9996
2 39766  97.9220 262.7699 0001630  90.8577 269.2821 14.79482290651197
KAZEOSAT 2              
1 40010U 14033A   26165.60298191  .00000729  00000+0  90268-4 0  9998
2 40010  97.5408   5.3520 0008112 338.9700  21.1181 14.85469049648571
HODOYOSHI-4             
1 40011U 14033B   26165.61342597  .00001872  00000+0  20812-3 0  9997
2 40011  97.5449 350.5606 0022587 317.5017  42.4451 14.88126313648420
DEIMOS-2                
1 40013U 14033D   26165.57059926  .00000686  00000+0  69963-4 0  9998
2 40013  97.5840  40.1519 0001645  48.5267 311.6094 14.93717453637331
HODOYOSHI-3             
1 40015U 14033F   26165.42310077  .00000952  00000+0  11563-3 0  9999
2 40015  97.6414 328.5749 0032961   6.4284 353.7348 14.85383551647212
SPOT 7                  
1 40053U 14034A   26165.57899291  .00000734  00000+0  15903-3 0  9998
2 40053  98.0636 228.1377 0001205  90.1499 269.9840 14.60957513636752
SKYSAT-B                
1 40072U 14037D   26165.63711169  .00001210  00000+0  13847-3 0  9991
2 40072  98.3838 124.4567 0004273 292.7685  67.3078 14.88021857645581
WORLDVIEW-3 (WV-3)      
1 40115U 14048A   26165.53952836  .00000746  00000+0  93717-4 0  9996
2 40115  97.8566 240.4089 0001193  29.4323 330.6958 14.85018095641510
GAOFEN-2                
1 40118U 14049A   26165.60877575  .00001163  00000+0  15740-3 0  9997
2 40118  98.0116 229.8183 0006019 236.7390 123.3246 14.80897961638854
YAOGAN-21               
1 40143U 14053A   26165.60585421  .00009278  00000+0  35918-3 0  9990
2 40143  97.1474 205.9523 0009945 100.4198 259.8163 15.26343879654560
YAOGAN-22               
1 40275U 14063A   26165.37179933 -.00000031  00000+0  41161-4 0  9995
2 40275 100.7720 316.5983 0006277 191.6270 168.4697 13.15531008559445
ASNARO                  
1 40298U 14070A   26165.59087227  .00012229  00000+0  58002-3 0  9998
2 40298  97.3460 241.7750 0005366 172.0575 188.0746 15.19408998643615
YAOGAN-24               
1 40310U 14072A   26165.64196734  .00000646  00000+0  10094-3 0  9994
2 40310  98.1479 302.9584 0012521 272.6975  87.2801 14.76220582623349
CBERS 4                 
1 40336U 14079A   26165.59764330  .00000333  00000+0  13031-3 0  9993
2 40336  98.3538 222.5105 0001915  65.6547 294.4839 14.35509235603588
YAOGAN-26               
1 40362U 14088A   26165.61139440  .00007959  00000+0  15795-3 0  9993
2 40362  97.0634 165.8805 0006188  72.9705 287.2224 15.47245671637300
SMAP                    
1 40376U 15003A   26165.54996601  .00000379  00000+0  82481-4 0  9994
2 40376  98.1276 172.6819 0001302  95.2165 264.9186 14.63364543607236
KOMPSAT-3A              
1 40536U 15014A   26165.60165897  .00022149  00000+0  32219-3 0  9998
2 40536  97.6880 156.7749 0056306 183.8582 176.2245 15.53887084621412
SENTINEL-2A             
1 40697U 15028A   26165.55734313  .00000277  00000+0  12223-3 0  9991
2 40697  98.5691 240.4463 0001107  89.8922 270.2388 14.30815160573358
GAOFEN-8                
1 40701U 15030A   26165.62806347  .00020326  00000+0  41940-3 0  9990
2 40701  97.6898 358.8457 0008534 195.5890 164.5097 15.45872732611057
CARBONITE 1 (CBNT-1)    
1 40718U 15032D   26165.61957231  .00001242  00000+0  15677-3 0  9992
2 40718  97.6500 343.7940 0013297 307.3895  52.6108 14.83579938588961
YAOGAN-27               
1 40878U 15040A   26165.59589301 -.00000393  00000+0 -92189-3 0  9995
2 40878 100.1145 152.0908 0007607 217.1317 142.9271 13.16069042517324
GAOFEN-9 01             
1 40894U 15047A   26165.63337416  .00000880  00000+0  11417-3 0  9997
2 40894  97.6275 201.4441 0028225 145.8945 214.4091 14.82879357579819
YAOGAN-28               
1 41026U 15064A   26165.63673131  .00005863  00000+0  22104-3 0  9992
2 41026  97.3069 303.9500 0010389 192.3448 167.7538 15.27392483590297
YAOGAN-29               
1 41038U 15069A   26165.61402383  .00000102  00000+0  19232-4 0  9997
2 41038  98.0029 194.2426 0002730  57.5025 302.6452 14.83082261570245
KENT RIDGE 1            
1 41167U 15077B   26165.67496432  .00003934  00000+0  13031-3 0  9999
2 41167  14.9792 284.6775 0008240 203.0027 156.9926 15.23119109580711
GAOFEN-4                
1 41194U 15083A   26165.64860782 -.00000328  00000+0  00000+0 0  9999
2 41194   0.3496  83.8588 0004341 114.7482  43.5447  1.00270008 38503
JASON-3                 
1 41240U 16002A   26165.59486521 -.00000065  00000+0 -11684-4 0  9996
2 41240  66.0400 131.2850 0008546 272.9208  87.0833 12.87628020486915
SENTINEL-3A             
1 41335U 16011A   26165.62175363  .00000100  00000+0  59202-4 0  9990
2 41335  98.6249 233.0421 0001391 102.4707 257.6629 14.26739329537699
ZIYUAN 3-02 (ZY 3-02)   
1 41556U 16033A   26165.62474539  .00005145  00000+0  23167-3 0  9990
2 41556  97.3841 241.4483 0011251 300.0142  59.9977 15.21459511557592
CARTOSAT-2C             
1 41599U 16040A   26165.62350851  .00006145  00000+0  29392-3 0  9992
2 41599  97.4494 225.6370 0010411 139.2482 220.9534 15.19304586553323
