OBJECT_NAME,OBJECT_ID,EPOCH,MEAN_MOTION,ECCENTRICITY,INCLINATION,RA_OF_ASC_NODE,ARG_OF_PERICENTER,MEAN_ANOMALY,EPHEMERIS_TYPE,CLASSIFICATION_TYPE,NORAD_CAT_ID,ELEMENT_SET_NO,REV_AT_EPOCH,BSTAR,MEAN_MOTION_DOT,MEAN_MOTION_DDOT
ALOS-2,2014-029A,2026-06-14T13:39:31.479840,14.79482290,.00016301,97.9220,262.7699,90.8577,269.2821,0,U,39766,999,65119,.2825802E-3,.206E-4,0
KAZEOSAT 2,2014-033A,2026-06-14T14:28:17.637024,14.85469049,.00081122,97.5408,5.3520,338.9700,21.1181,0,U,40010,999,64857,.90267908E-4,.729E-5,0
HODOYOSHI-4,2014-033B,2026-06-14T14:43:20.003808,14.88126313,.0022587,97.5449,350.5606,317.5017,42.4451,0,U,40011,999,64842,.20812209E-3,.1872E-4,0
DEIMOS-2,2014-033D,2026-06-14T13:41:39.776064,14.93717453,.0001645,97.5840,40.1519,48.5267,311.6094,0,U,40013,999,63733,.69963104E-4,.686E-5,0
HODOYOSHI-3,2014-033F,2026-06-14T10:09:15.906528,14.85383551,.00329614,97.6414,328.5749,6.4284,353.7348,0,U,40015,999,64721,.11563082E-3,.952E-5,0
SPOT 7,2014-034A,2026-06-14T13:53:44.987424,14.60957513,.00012058,98.0636,228.1377,90.1499,269.9840,0,U,40053,999,63675,.15903494E-3,.734E-5,0
SKYSAT-B,2014-037D,2026-06-14T15:17:26.450016,14.88021857,.00042738,98.3838,124.4567,292.7685,67.3078,0,U,40072,999,64558,.13847176E-3,.121E-4,0
WORLDVIEW-3 (WV-3),2014-048A,2026-06-14T12:56:55.250304,14.85018095,.0001193,97.8566,240.4089,29.4323,330.6958,0,U,40115,999,64151,.93716656E-4,.746E-5,0
GAOFEN-2,2014-049A,2026-06-14T14:36:38.224800,14.80897961,.00060197,98.0116,229.8183,236.7390,123.3246,0,U,40118,999,63885,.15739533E-3,.1163E-4,0
YAOGAN-21,2014-053A,2026-06-14T14:32:25.803744,15.26343879,.00099455,97.1474,205.9523,100.4198,259.8163,0,U,40143,999,65456,.3591777E-3,.9278E-4,0
YAOGAN-22,2014-063A,2026-06-14T08:55:23.462112,13.15531008,.00062771,100.7720,316.5983,191.6270,168.4697,0,U,40275,999,55944,.41161116E-4,-.31E-6,0
ASNARO,2014-070A,2026-06-14T14:10:51.364128,15.19408998,.0005366,97.3460,241.7750,172.0575,188.0746,0,U,40298,999,64361,.58002032E-3,.12229E-3,0
YAOGAN-24,2014-072A,2026-06-14T15:24:25.978176,14.76220582,.00125217,98.1479,302.9584,272.6975,87.2801,0,U,40310,999,62334,.10094007E-3,.646E-5,0
CBERS 4,2014-079A,2026-06-14T14:20:36.381120,14.35509235,.00019157,98.3538,222.5105,65.6547,294.4839,0,U,40336,999,60358,.13030566E-3,.333E-5,0
YAOGAN-26,2014-088A,2026-06-14T14:40:24.476160,15.47245671,.0006188,97.0634,165.8805,72.9705,287.2224,0,U,40362,999,63730,.15795017E-3,.7959E-4,0
SMAP,2015-003A,2026-06-14T13:11:57.063264,14.63364543,.00013029,98.1276,172.6819,95.2165,264.9186,0,U,40376,999,60723,.82480853E-4,.379E-5,0
KOMPSAT-3A,2015-014A,2026-06-14T14:26:23.335008,15.53887084,.0056306,97.6880,156.7749,183.8582,176.2245,0,U,40536,999,62141,.32218975E-3,.22149E-3,0
SENTINEL-2A,2015-028A,2026-06-14T13:22:34.446432,14.30815160,.0001107,98.5691,240.4463,89.8922,270.2388,0,U,40697,999,57335,.12223015E-3,.277E-5,0
GAOFEN-8,2015-030A,2026-06-14T15:04:24.683808,15.45872732,.00085347,97.6898,358.8457,195.5890,164.5097,0,U,40701,999,61105,.4194013E-3,.20326E-3,0
CARBONITE 1 (CBNT-1),2015-032D,2026-06-14T14:52:11.047584,14.83579938,.00132973,97.6500,343.7940,307.3895,52.6108,0,U,40718,999,58896,.15676771E-3,.1242E-4,0
YAOGAN-27,2015-040A,2026-06-14T14:18:05.156064,13.16069042,.00076077,100.1145,152.0908,217.1317,142.9271,0,U,40878,999,51732,-.92188622E-3,-.393E-5,0
GAOFEN-9 01,2015-047A,2026-06-14T15:12:03.527424,14.82879357,.00282251,97.6275,201.4441,145.8945,214.4091,0,U,40894,999,57981,.1141686E-3,.88E-5,0
YAOGAN-28,2015-064A,2026-06-14T15:16:53.585184,15.27392483,.00103895,97.3069,303.9500,192.3448,167.7538,0,U,41026,999,59029,.22104489E-3,.5863E-4,0
YAOGAN-29,2015-069A,2026-06-14T14:44:11.658912,14.83082261,.000273,98.0029,194.2426,57.5025,302.6452,0,U,41038,999,57024,.19231556E-4,.102E-5,0
KENT RIDGE 1,2015-077B,2026-06-14T16:11:56.917248,15.23119109,.00082403,14.9792,284.6775,203.0027,156.9926,0,U,41167,999,58071,.13030832E-3,.3934E-4,0
GAOFEN-4,2015-083A,2026-06-14T15:33:59.715648,1.00270008,.00043411,0.3496,83.8588,114.7482,43.5447,0,U,41194,999,3850,0,-.328E-5,0
JASON-3,2016-002A,2026-06-14T14:16:36.354144,12.87628020,.00085461,66.0400,131.2850,272.9208,87.0833,0,U,41240,999,48691,-.1168413E-4,-.65E-6,0
SENTINEL-3A,2016-011A,2026-06-14T14:55:19.513632,14.26739329,.00013919,98.6249,233.0421,102.4707,257.6629,0,U,41335,999,53769,.59201898E-4,.1E-5,0
ZIYUAN 3-02 (ZY 3-02),2016-033A,2026-06-14T14:59:38.001696,15.21459511,.00112519,97.3841,241.4483,300.0142,59.9977,0,U,41556,999,55759,.23166707E-3,.5145E-4,0
CARTOSAT-2C,2016-040A,2026-06-14T14:57:51.135264,15.19304586,.00104119,97.4494,225.6370,139.2482,220.9534,0,U,41599,999,55332,.29391507E-3,.6145E-4,0
